ONEWEB-0156             
1 48052U 21025L   26023.60924811 -.00000262  00000+0 -75266-3 0  9993
2 48052  87.9019 348.9437 0001857  86.3872 273.7470 13.13471686234591
ONEWEB-0161             
1 48053U 21025M   26023.58387578  .00000361  00000+0  95471-3 0  9992
2 48053  87.9012 348.9614 0001832  88.0119 272.1220 13.13470538234522
ONEWEB-0158             
1 48054U 21025N   26023.39089137 -.00000243  00000+0 -70133-3 0  9991
2 48054  87.9017 348.9863 0001641  71.9770 288.1538 13.13470399234621
ONEWEB-0157             
1 48055U 21025P   26023.34010918  .00000281  00000+0  73513-3 0  9993
2 48055  87.9017 349.0022 0001748  95.6116 264.5212 13.13471111234558
ONEWEB-0162             
1 48056U 21025Q   26023.62097366 -.00000427  00000+0 -12050-2 0  9999
2 48056  87.9016 348.9505 0002040  83.6610 276.4751 13.13470823234564
ONEWEB-0155             
1 48057U 21025R   26023.62786908 -.00000161  00000+0 -47633-3 0  9998
2 48057  87.9014 348.9512 0001628  86.8073 273.3243 13.13471703234706
ONEWEB-0149             
1 48058U 21025S   26023.34519147  .00000437  00000+0  11628-2 0  9995
2 48058  87.9017 349.0016 0002018  83.5892 276.5467 13.13470575234471
ONEWEB-0148             
1 48059U 21025T   26023.61265434 -.00000323  00000+0 -91885-3 0  9993
2 48059  87.9011 348.9655 0002341  89.0022 271.1375 13.13470570234630
ONEWEB-0160             
1 48060U 21025U   26023.32486919 -.00000129  00000+0 -38784-3 0  9999
2 48060  87.9009 349.0199 0001923  58.8957 301.2361 13.13471458234546
ONEWEB-0163             
1 48061U 21025V   26023.61433268 -.00000345  00000+0 -97879-3 0  9991
2 48061  87.9020 348.9519 0001751  91.8398 268.2932 13.13471687234707
ONEWEB-0159             
1 48062U 21025W   26023.45352867 -.00000173  00000+0 -50888-3 0  9997
2 48062  87.9020 348.9683 0001883  88.7831 271.3514 13.13469689234602
ONEWEB-0164             
1 48063U 21025X   26023.58724065  .00000320  00000+0  84050-3 0  9995
2 48063  87.9022 348.9485 0001741  79.9882 280.1443 13.13471813234607
ONEWEB-0167             
1 48064U 21025Y   26023.61518094 -.00000292  00000+0 -83409-3 0  9990
2 48064  87.9012 348.9662 0001192  99.5944 260.5320 13.13471887234596
ONEWEB-0166             
1 48065U 21025Z   26023.63804671  .00000063  00000+0  13726-3 0  9991
2 48065  87.9018 348.9215 0001939  85.6431 274.4920 13.13470433234678
ONEWEB-0151             
1 48066U 21025AA  26023.33502775  .00000159  00000+0  40080-3 0  9998
2 48066  87.9017 349.0086 0001652  83.2548 276.8769 13.13471586234577
ONEWEB-0170             
1 48067U 21025AB  26023.41966480  .00000337  00000+0  88798-3 0  9991
2 48067  87.9014 348.9945 0001482  69.0753 291.0535 13.13469283234546
ONEWEB-0168             
1 48068U 21025AC  26023.63296734 -.00000045  00000+0 -15680-3 0  9992
2 48068  87.9018 348.9401 0001812  88.8523 271.2814 13.13470910234582
ONEWEB-0173             
1 48069U 21025AD  26023.39596459 -.00000139  00000+0 -41469-3 0  9991
2 48069  87.9021 348.9948 0001626  95.6102 264.5212 13.13471323234794
ONEWEB-0171             
1 48070U 21025AE  26023.43321010  .00000164  00000+0  41378-3 0  9992
2 48070  87.9010 349.0044 0001656  81.9063 278.2254 13.13471074234612
ONEWEB-0172             
1 48071U 21025AF  26023.33672520  .00000254  00000+0  65978-3 0  9999
2 48071  87.9015 349.0097 0001626  85.4753 274.6562 13.13470589235497
ONEWEB-0174             
1 48072U 21025AG  26023.62280149 -.00000278  00000+0 -79710-3 0  9991
2 48072  87.9012 348.9545 0001895  85.6314 274.5032 13.13470943234858
ONEWEB-0175             
1 48073U 21025AH  26023.34857789  .00000531  00000+0  14204-2 0  9997
2 48073  87.9018 348.9810 0001445  78.3725 281.7566 13.13469959234471
ONEWEB-0177             
1 48074U 21025AJ  26023.58895541  .00000271  00000+0  70657-3 0  9998
2 48074  87.9021 348.9533 0001861  87.2968 272.8374 13.13470805234692
ONEWEB-0178             
1 48075U 21025AK  26023.60772077 -.00000176  00000+0 -51804-3 0  9999
2 48075  87.9002 348.9854 0001550  87.6661 272.4645 13.13469471234747
ONEWEB-0108             
1 48076U 21025AL  26023.41458455  .00000287  00000+0  75032-3 0  9990
2 48076  87.9019 348.9771 0001990  78.4125 281.7228 13.13471503234643
ONEWEB-0169             
1 48077U 21025AM  26023.44675733  .00000034  00000+0  57101-4 0  9992
2 48077  87.9015 348.9898 0001993  79.0507 281.0846 13.13469330233300
ONEWEB-0176             
1 48210U 21031A   26023.32684464  .00000159  00000+0  39405-3 0  9990
2 48210  87.9028 318.5727 0001641  79.5153 280.6162 13.14505242229281
ONEWEB-0184             
1 48211U 21031B   26023.52823755 -.00000101  00000+0 -30559-3 0  9991
2 48211  87.9041 318.5181 0000889  75.9205 284.2023 13.14504432229288
ONEWEB-0179             
1 48212U 21031C   26023.57501502  .00000282  00000+0  72516-3 0  9997
2 48212  87.9031 318.5144 0001871  84.0940 276.0403 13.14501793229330
ONEWEB-0180             
1 48213U 21031D   26023.30305993 -.00000124  00000+0 -36814-3 0  9993
2 48213  87.9041 318.5681 0001587  88.2764 271.8548 13.14503968229184
ONEWEB-0218             
1 48214U 21031E   26023.55360751  .00000149  00000+0  36746-3 0  9993
2 48214  87.9036 318.5186 0000921  96.5592 263.5643 13.14501533229372
ONEWEB-0209             
1 48215U 21031F   26023.54251449 -.00000121  00000+0 -36029-3 0  9992
2 48215  87.9023 318.5523 0001819  84.7068 275.4269 13.14504493229372
ONEWEB-0198             
1 48216U 21031G   26023.52679767 -.00000157  00000+0 -45750-3 0  9998
2 48216  87.9029 318.5529 0001475  90.8515 269.2784 13.14503139229489
ONEWEB-0189             
1 48217U 21031H   26023.31099094 -.00000067  00000+0 -21491-3 0  9991
2 48217  87.9031 318.5712 0001495  88.0190 272.1111 13.14503377229196
ONEWEB-0196             
1 48218U 21031J   26023.36490043 -.00000020  00000+0 -88188-4 0  9992
2 48218  87.9027 318.5728 0001679  82.7863 277.3458 13.14502173229207
ONEWEB-0183             
1 48219U 21031K   26023.56788328  .00000232  00000+0  59201-3 0  9997
2 48219  87.9018 318.5337 0001943  79.6824 280.4525 13.14504514229324
ONEWEB-0185             
1 48220U 21031L   26023.28957987 -.00000048  00000+0 -16518-3 0  9998
2 48220  87.9033 318.5717 0002047  87.4559 272.6805 13.14501965229212
ONEWEB-0187             
1 48221U 21031M   26023.57409710  .00000302  00000+0  78009-3 0  9991
2 48221  87.9022 318.5516 0001752  86.9012 273.2319 13.14504157229266
ONEWEB-0192             
1 48222U 21031N   26023.54409398 -.00000074  00000+0 -23523-3 0  9990
2 48222  87.9020 318.5469 0001630  78.9440 281.1873 13.14504240229179
ONEWEB-0219             
1 48223U 21031P   26023.37124652 -.00000109  00000+0 -32967-3 0  9990
2 48223  87.9031 318.5627 0001863  85.4648 274.6695 13.14503811229351
ONEWEB-0202             
1 48224U 21031Q   26023.50444589  .00000189  00000+0  47599-3 0  9993
2 48224  87.9022 318.5462 0001133  96.6414 263.4845 13.14504087229353
ONEWEB-0204             
1 48225U 21031R   26023.31018812 -.00000089  00000+0 -27513-3 0  9994
2 48225  87.9032 318.5772 0002088  79.9844 280.1521 13.14502507229228
ONEWEB-0205             
1 48226U 21031S   26023.51397282  .00000095  00000+0  22245-3 0  9990
2 48226  87.9030 318.5292 0001795  83.4341 276.6994 13.14503726229262
ONEWEB-0206             
1 48227U 21031T   26023.56313230  .00000215  00000+0  54678-3 0  9996
2 48227  87.9039 318.5144 0001657  69.7990 290.3318 13.14502855229223
ONEWEB-0182             
1 48228U 21031U   26023.33001632  .00000188  00000+0  47264-3 0  9994
2 48228  87.9019 318.5808 0001977  78.1918 281.9433 13.14504522229405
ONEWEB-0186             
1 48229U 21031V   26023.56948275  .00000294  00000+0  75933-3 0  9995
2 48229  87.9032 318.5164 0001719  81.8919 278.2406 13.14503898229383
ONEWEB-0181             
1 48230U 21031W   26023.54727662 -.00000165  00000+0 -48031-3 0  9998
2 48230  87.9016 318.5687 0001661  83.7654 276.3665 13.14502984229235
ONEWEB-0188             
1 48231U 21031X   26023.50920019  .00000106  00000+0  25277-3 0  9996
2 48231  87.9021 318.5736 0001767  78.5864 281.5464 13.14505100229136
ONEWEB-0220             
1 48232U 21031Y   26023.32049344  .00000015  00000+0  52471-5 0  9997
2 48232  87.9032 318.5647 0001886  84.9781 275.1564 13.14504621229374
ONEWEB-0165             
1 48233U 21031Z   26023.57740518  .00000079  00000+0  17840-3 0  9995
2 48233  87.9024 318.5340 0001492  88.7477 271.3824 13.14503257229363
ONEWEB-0199             
1 48234U 21031AA  26023.56154459  .00000130  00000+0  31736-3 0  9996
2 48234  87.9031 318.5168 0001763  73.2375 286.8948 13.14504364229264
ONEWEB-0203             
1 48235U 21031AB  26023.55202499  .00000153  00000+0  37878-3 0  9992
2 48235  87.9025 318.5180 0001480  75.8208 284.3086 13.14504714229277
ONEWEB-0197             
1 48236U 21031AC  26023.29815997 -.00000117  00000+0 -35073-3 0  9994
2 48236  87.9030 318.5678 0002080  77.9768 282.1595 13.14504100229154
ONEWEB-0194             
1 48237U 21031AD  26023.50604837  .00000238  00000+0  60631-3 0  9998
2 48237  87.9029 318.5439 0001648  70.0465 290.0842 13.14503587229358
ONEWEB-0193             
1 48238U 21031AE  26023.52189719 -.00000002  00000+0 -40324-4 0  9997
2 48238  87.9028 318.5337 0001669  62.6253 297.5047 13.14504472229308
ONEWEB-0191             
1 48239U 21031AF  26023.53299574 -.00000211  00000+0 -60492-3 0  9999
2 48239  87.9036 318.5247 0001817  76.7123 283.4209 13.14504590229164
ONEWEB-0195             
1 48240U 21031AG  26023.50999373  .00000139  00000+0  34161-3 0  9993
2 48240  87.9029 318.5271 0001492  89.5579 270.5721 13.14501874229147
ONEWEB-0201             
1 48241U 21031AH  26023.34599798  .00000303  00000+0  78367-3 0  9992
2 48241  87.9021 318.5924 0001920  85.6868 274.4481 13.14505760229356
ONEWEB-0207             
1 48242U 21031AJ  26023.32604857  .00000159  00000+0  39351-3 0  9993
2 48242  87.9031 318.5639 0001930  83.0783 277.0566 13.14502136229267
